{"type": "FeatureCollection", "features": [ {"type": "Feature", "properties": {"norad_id": 34077, "name": "IRIDIUM 33 DEB", "group": "iridium-33-debris", "lat": -61.17373939888354, "lon": -122.80041726928486, "alt_km": 691.0017368946028, "timestamp": "2025-12-14T18:52:55.888532+00:00", "meta": {"OBJECT_NAME": "IRIDIUM 33 DEB", "OBJECT_ID": "1997-051CL", "EPOCH": "2025-12-13T14:27:56.188224", "MEAN_MOTION": 14.64854773, "ECCENTRICITY": 0.00101196, "INCLINATION": 86.3862, "RA_OF_ASC_NODE": 51.127, "ARG_OF_PERICENTER": 36.6624, "MEAN_ANOMALY": 84.8045, "EPHEMERIS_TYPE": 0, "CLASSIFICATION_TYPE": "U", "NORAD_CAT_ID": 34077, "ELEMENT_SET_NO": 999, "REV_AT_EPOCH": 88345, "BSTAR": 0.0015176462, "MEAN_MOTION_DOT": 8.133e-05, "MEAN_MOTION_DDOT": 0}, "tle": {"line1": "1 34077U 97051CL  25347.60273366  .00008133  00000+0  15176-2 0  9993", "line2": "2 34077  86.3862  51.1270 0010119  36.6624  84.8045 14.64854773883457"}}, "geometry": {"type": "Point", "coordinates": [-122.80041726928486, -61.17373939888354]}}, {"type": "Feature", "properties": {"norad_id": 34079, "name": "IRIDIUM 33 DEB", "group": "iridium-33-debris", "lat": 10.662751519323608, "lon": 8.415108491551978, "alt_km": 615.8601586090945, "timestamp": "2025-12-14T18:52:55.888543+00:00", "meta": {"OBJECT_NAME": "IRIDIUM 33 DEB", "OBJECT_ID": "1997-051CN", "EPOCH": "2025-12-13T19:20:48.276384", "MEAN_MOTION": 14.8356913, "ECCENTRICITY": 0.00054496, "INCLINATION": 86.3781, "RA_OF_ASC_NODE": 8.1776, "ARG_OF_PERICENTER": 4.7034, "MEAN_ANOMALY": 172.0319, "EPHEMERIS_TYPE": 0, "CLASSIFICATION_TYPE": "U", "NORAD_CAT_ID": 34079, "ELEMENT_SET_NO": 999, "REV_AT_EPOCH": 88993, "BSTAR": 0.0017208516, "MEAN_MOTION_DOT": 0.00014216, "MEAN_MOTION_DDOT": 0}, "tle": {"line1": "1 34079U 97051CN  25347.80611431  .00014216  00000+0  17209-2 0  9994", "line2": "2 34079  86.3781   8.1776 0005449   4.7034 172.0319 14.83569130889937"}}, "geometry": {"type": "Point", "coordinates": [8.415108491551978, 10.662751519323608]}}, {"type": "Feature", "properties": {"norad_id": 34088, "name": "IRIDIUM 33 DEB", "group": "iridium-33-debris", "lat": 19.72598857677346, "lon": -151.515144646636, "alt_km": 589.4509252649841, "timestamp": "2025-12-14T18:52:55.888553+00:00", "meta": {"OBJECT_NAME": "IRIDIUM 33 DEB", "OBJECT_ID": "1997-051CX", "EPOCH": "2025-12-13T15:20:46.536000", "MEAN_MOTION": 14.91450641, "ECCENTRICITY": 0.00058418, "INCLINATION": 86.3853, "RA_OF_ASC_NODE": 30.3107, "ARG_OF_PERICENTER": 173.407, "MEAN_ANOMALY": 310.4314, "EPHEMERIS_TYPE": 0, "CLASSIFICATION_TYPE": "U", "NORAD_CAT_ID": 34088, "ELEMENT_SET_NO": 999, "REV_AT_EPOCH": 88755, "BSTAR": 0.0025953124, "MEAN_MOTION_DOT": 0.00026038, "MEAN_MOTION_DDOT": 0}, "tle": {"line1": "1 34088U 97051CX  25347.63942750  .00026038  00000+0  25953-2 0  9996", "line2": "2 34088  86.3853  30.3107 0005841 173.4070 310.4314 14.91450641887556"}}, "geometry": {"type": "Point", "coordinates": [-151.515144646636, 19.72598857677346]}}, {"type": "Feature", "properties": {"norad_id": 34091, "name": "IRIDIUM 33 DEB", "group": "iridium-33-debris", "lat": -83.38926229113967, "lon": 32.386015441919575, "alt_km": 607.444745443845, "timestamp": "2025-12-14T18:52:55.888563+00:00", "meta": {"OBJECT_NAME": "IRIDIUM 33 DEB", "OBJECT_ID": "1997-051DA", "EPOCH": "2025-12-13T17:19:57.788832", "MEAN_MOTION": 14.81942136, "ECCENTRICITY": 0.00333563, "INCLINATION": 86.3415, "RA_OF_ASC_NODE": 66.3836, "ARG_OF_PERICENTER": 289.6815, "MEAN_ANOMALY": 70.0809, "EPHEMERIS_TYPE": 0, "CLASSIFICATION_TYPE": "U", "NORAD_CAT_ID": 34091, "ELEMENT_SET_NO": 999, "REV_AT_EPOCH": 87881, "BSTAR": 0.0045703792, "MEAN_MOTION_DOT": 0.00036723, "MEAN_MOTION_DDOT": 0}, "tle": {"line1": "1 34091U 97051DA  25347.72219663  .00036723  00000+0  45704-2 0  9998", "line2": "2 34091  86.3415  66.3836 0033356 289.6815  70.0809 14.81942136878812"}}, "geometry": {"type": "Point", "coordinates": [32.386015441919575, -83.38926229113967]}}, {"type": "Feature", "properties": {"norad_id": 34097, "name": "IRIDIUM 33 DEB", "group": "iridium-33-debris", "lat": 2.9090327014174413, "lon": -179.6885825821042, "alt_km": 837.3478511990952, "timestamp": "2025-12-14T18:52:55.888573+00:00", "meta": {"OBJECT_NAME": "IRIDIUM 33 DEB", "OBJECT_ID": "1997-051DG", "EPOCH": "2025-12-13T23:38:53.687040", "MEAN_MOTION": 14.34790715, "ECCENTRICITY": 0.0082418, "INCLINATION": 86.2009, "RA_OF_ASC_NODE": 0.8584, "ARG_OF_PERICENTER": 358.1458, "MEAN_ANOMALY": 1.9419, "EPHEMERIS_TYPE": 0, "CLASSIFICATION_TYPE": "U", "NORAD_CAT_ID": 34097, "ELEMENT_SET_NO": 999, "REV_AT_EPOCH": 87137, "BSTAR": 0.0016921642, "MEAN_MOTION_DOT": 5.004e-05, "MEAN_MOTION_DDOT": 0}, "tle": {"line1": "1 34097U 97051DG  25347.98534360  .00005004  00000+0  16922-2 0  9994", "line2": "2 34097  86.2009   0.8584 0082418 358.1458   1.9419 14.34790715871373"}}, "geometry": {"type": "Point", "coordinates": [-179.6885825821042, 2.9090327014174413]}}, {"type": "Feature", "properties": {"norad_id": 34145, "name": "IRIDIUM 33 DEB", "group": "iridium-33-debris", "lat": 37.76295640242102, "lon": 148.67368960622838, "alt_km": 725.1780026306187, "timestamp": "2025-12-14T18:52:55.888584+00:00", "meta": {"OBJECT_NAME": "IRIDIUM 33 DEB", "OBJECT_ID": "1997-051DY", "EPOCH": "2025-12-13T23:54:55.550592", "MEAN_MOTION": 14.42301532, "ECCENTRICITY": 0.00557549, "INCLINATION": 86.2116, "RA_OF_ASC_NODE": 331.9677, "ARG_OF_PERICENTER": 89.7905, "MEAN_ANOMALY": 270.9684, "EPHEMERIS_TYPE": 0, "CLASSIFICATION_TYPE": "U", "NORAD_CAT_ID": 34145, "ELEMENT_SET_NO": 999, "REV_AT_EPOCH": 87656, "BSTAR": 0.0013273066, "MEAN_MOTION_DOT": 4.482e-05, "MEAN_MOTION_DDOT": 0}, "tle": {"line1": "1 34145U 97051DY  25347.99647628  .00004482  00000+0  13273-2 0  9996", "line2": "2 34145  86.2116 331.9677 0055754  89.7905 270.9684 14.42301532876566"}}, "geometry": {"type": "Point", "coordinates": [148.67368960622838, 37.76295640242102]}}, {"type": "Feature", "properties": {"norad_id": 34146, "name": "IRIDIUM 33 DEB", "group": "iridium-33-debris", "lat": -8.898567134487195, "lon": 169.47979207860422, "alt_km": 716.4571339606409, "timestamp": "2025-12-14T18:52:55.888608+00:00", "meta": {"OBJECT_NAME": "IRIDIUM 33 DEB", "OBJECT_ID": "1997-051DZ", "EPOCH": "2025-12-14T00:04:18.817248", "MEAN_MOTION": 14.49061779, "ECCENTRICITY": 0.00255883, "INCLINATION": 86.284, "RA_OF_ASC_NODE": 349.2428, "ARG_OF_PERICENTER": 217.172, "MEAN_ANOMALY": 205.7661, "EPHEMERIS_TYPE": 0, "CLASSIFICATION_TYPE": "U", "NORAD_CAT_ID": 34146, "ELEMENT_SET_NO": 999, "REV_AT_EPOCH": 88125, "BSTAR": 0.0011362726, "MEAN_MOTION_DOT": 4.35e-05, "MEAN_MOTION_DDOT": 0}, "tle": {"line1": "1 34146U 97051DZ  25348.00299557  .00004350  00000+0  11363-2 0  9996", "line2": "2 34146  86.2840 349.2428 0025588 217.1720 205.7661 14.49061779881257"}}, "geometry": {"type": "Point", "coordinates": [169.47979207860422, -8.898567134487195]}}, {"type": "Feature", "properties": {"norad_id": 34159, "name": "IRIDIUM 33 DEB", "group": "iridium-33-debris", "lat": -5.859598917719173, "lon": -132.256156494627, "alt_km": 768.8489204453845, "timestamp": "2025-12-14T18:52:55.888622+00:00", "meta": {"OBJECT_NAME": "IRIDIUM 33 DEB", "OBJECT_ID": "1997-051EN", "EPOCH": "2025-12-13T15:18:25.992576", "MEAN_MOTION": 14.38498063, "ECCENTRICITY": 0.0026, "INCLINATION": 86.3513, "RA_OF_ASC_NODE": 47.8583, "ARG_OF_PERICENTER": 284.6423, "MEAN_ANOMALY": 75.1892, "EPHEMERIS_TYPE": 0, "CLASSIFICATION_TYPE": "U", "NORAD_CAT_ID": 34159, "ELEMENT_SET_NO": 999, "REV_AT_EPOCH": 87972, "BSTAR": 0.00058950971, "MEAN_MOTION_DOT": 1.826e-05, "MEAN_MOTION_DDOT": 0}, "tle": {"line1": "1 34159U 97051EN  25347.63780084  .00001826  00000+0  58951-3 0  9998", "line2": "2 34159  86.3513  47.8583 0026000 284.6423  75.1892 14.38498063879723"}}, "geometry": {"type": "Point", "coordinates": [-132.256156494627, -5.859598917719173]}}, {"type": "Feature", "properties": {"norad_id": 34350, "name": "IRIDIUM 33 DEB", "group": "iridium-33-debris", "lat": -84.36798898347782, "lon": -137.44182331230337, "alt_km": 760.1242589972344, "timestamp": "2025-12-14T18:52:55.888633+00:00", "meta": {"OBJECT_NAME": "IRIDIUM 33 DEB", "OBJECT_ID": "1997-051ES", "EPOCH": "2025-12-13T14:00:17.029152", "MEAN_MOTION": 14.45389199, "ECCENTRICITY": 0.00228878, "INCLINATION": 86.3275, "RA_OF_ASC_NODE": 2.4411, "ARG_OF_PERICENTER": 132.5486, "MEAN_ANOMALY": 356.1035, "EPHEMERIS_TYPE": 0, "CLASSIFICATION_TYPE": "U", "NORAD_CAT_ID": 34350, "ELEMENT_SET_NO": 999, "REV_AT_EPOCH": 88305, "BSTAR": 0.00044409912, "MEAN_MOTION_DOT": 1.586e-05, "MEAN_MOTION_DDOT": 0}, "tle": {"line1": "1 34350U 97051ES  25347.58353043  .00001586  00000+0  44410-3 0  9994", "line2": "2 34350  86.3275   2.4411 0022887 132.5486 356.1035 14.45389199883056"}}, "geometry": {"type": "Point", "coordinates": [-137.44182331230337, -84.36798898347782]}}, {"type": "Feature", "properties": {"norad_id": 34366, "name": "IRIDIUM 33 DEB", "group": "iridium-33-debris", "lat": -62.3919721039084, "lon": 41.45072285175117, "alt_km": 735.0523853371269, "timestamp": "2025-12-14T18:52:55.888644+00:00", "meta": {"OBJECT_NAME": "IRIDIUM 33 DEB", "OBJECT_ID": "1997-051FJ", "EPOCH": "2025-12-13T15:39:41.959008", "MEAN_MOTION": 14.54070514, "ECCENTRICITY": 0.0022578, "INCLINATION": 86.3699, "RA_OF_ASC_NODE": 48.9163, "ARG_OF_PERICENTER": 136.7166, "MEAN_ANOMALY": 347.3709, "EPHEMERIS_TYPE": 0, "CLASSIFICATION_TYPE": "U", "NORAD_CAT_ID": 34366, "ELEMENT_SET_NO": 999, "REV_AT_EPOCH": 88195, "BSTAR": 0.0012496588, "MEAN_MOTION_DOT": 5.312e-05, "MEAN_MOTION_DDOT": 0}, "tle": {"line1": "1 34366U 97051FJ  25347.65256897  .00005312  00000+0  12497-2 0  9998", "line2": "2 34366  86.3699  48.9163 0022578 136.7166 347.3709 14.54070514881955"}}, "geometry": {"type": "Point", "coordinates": [41.45072285175117, -62.3919721039084]}}]}